ONEWEB-0531             
1 54146U 22138AK  24133.55862547 -.00000033  00000+0 -11378-3 0  9991
2 54146  87.9213  66.7684 0002980  67.2511 292.8937 13.20771691 79115
ONEWEB-0535             
1 54147U 22138AL  24133.86041895  .00000201  00000+0  47064-3 0  9997
2 54147  87.9124  97.2733 0002152  77.6687 282.4686 13.19725687 76767
ONEWEB-0536             
1 54148U 22138AM  24133.54599776  .00000166  00000+0  37657-3 0  9996
2 54148  87.9212  66.8203 0002569  57.0753 303.0627 13.20773171 78230
ONEWEB-0527             
1 54642U 22166A   24133.72929266  .00000050  00000+0  88873-4 0  9996
2 54642  87.9316  36.3599 0002064  81.4679 278.6688 13.21826786 70869
ONEWEB-0528             
1 54643U 22166B   24133.43281692  .00000039  00000+0  63650-4 0  9992
2 54643  87.9321  36.4044 0001957  85.4925 274.6433 13.21825740 70380
ONEWEB-0539             
1 54644U 22166C   24133.62047451  .00000114  00000+0  24466-3 0  9992
2 54644  87.9323  36.3688 0001679  78.1632 281.9690 13.21826446 70404
ONEWEB-0540             
1 54645U 22166D   24133.76635364  .00000136  00000+0  29884-3 0  9997
2 54645  87.9316  36.3603 0001583  81.3407 278.7906 13.21826890 70883
ONEWEB-0542             
1 54646U 22166E   24133.47854104  .00000024  00000+0  26503-4 0  9993
2 54646  87.9323  36.3967 0001564  68.0355 292.0945 13.21826057 70380
